ONEWEB-0531             
1 54146U 22138AK  26013.53713791  .00000118  00000+0  25724-3 0  9996
2 54146  87.9230 305.2867 0001854 107.0320 253.1017 13.20772274158898
ONEWEB-0535             
1 54147U 22138AL  26013.41304989  .00000027  00000+0  35692-4 0  9994
2 54147  87.9238 335.7466 0002009  89.6478 270.4885 13.19726779156421
ONEWEB-0536             
1 54148U 22138AM  26013.52450808  .00000080  00000+0  16565-3 0  9995
2 54148  87.9220 305.3293 0001756 111.5716 248.5605 13.20773294158886
ONEWEB-0527             
1 54642U 22166A   26013.44726412  .00000147  00000+0  32369-3 0  9997
2 54642  87.9220 274.8671 0001539  77.0812 283.0493 13.21827897151092
ONEWEB-0528             
1 54643U 22166B   26013.45385778  .00000060  00000+0  11359-3 0  9995
2 54643  87.9219 274.8696 0001504  73.5112 286.6187 13.21827222151107
ONEWEB-0539             
1 54644U 22166C   26013.64309152 -.00000011  00000+0 -57246-4 0  9993
2 54644  87.9218 274.7970 0001744  70.4585 289.6737 13.21825208151125
ONEWEB-0540             
1 54645U 22166D   26013.64981104  .00000037  00000+0  58780-4 0  9997
2 54645  87.9218 274.8333 0001754  76.3164 283.8165 13.21827715151114
ONEWEB-0542             
1 54646U 22166E   26013.65297679  .00000022  00000+0  21873-4 0  9993
2 54646  87.9215 274.7905 0001943  72.7828 287.3518 13.21824807151124
